start=new Date('2021-08-30T00:00:00.000Z').valueOf();
sats=[{"RA_OF_ASC_NODE":"76.6101","OBJECT_ID":"2020-038AC","ELEMENT_SET_NO":"999","SITE":"AFETR","PERIOD":"95.592","MEAN_MOTION":"15.06402498","COUNTRY_CODE":"US","MEAN_MOTION_DDOT":"0.0000000000000","FILE":"3105271","DECAY_DATE":null,"BSTAR":"0.00013057000000","ARG_OF_PERICENTER":"93.7824","INCLINATION":"53.0548","APOAPSIS":"548.497","RCS_SIZE":"LARGE","PERIAPSIS":"545.915","NORAD_CAT_ID":"45756","TIME_SYSTEM":"UTC","REF_FRAME":"TEME","LAUNCH_DATE":"2020-06-13","SEMIMAJOR_AXIS":"6925.341","MEAN_ELEMENT_THEORY":"SGP4","REV_AT_EPOCH":"6734","ECCENTRICITY":"0.00018640","CLASSIFICATION_TYPE":"U","CENTER_NAME":"EARTH","OBJECT_TYPE":"PAYLOAD","MEAN_ANOMALY":"266.3379","MEAN_MOTION_DOT":"0.00001664","EPHEMERIS_TYPE":"0","TLE_LINE1":"1 45756U 20038AC  21241.82747290  .00001664  00000-0  13057-3 0  9995","TLE_LINE2":"2 45756  53.0548  76.6101 0001864  93.7824 266.3379 15.06402498 67342","GP_ID":"183698146","EPOCH":"2021-08-29T19:51:33.658560","OBJECT_NAME":"STARLINK-1484"},{"ELEMENT_SET_NO":"999","OBJECT_ID":"2020-038AD","RA_OF_ASC_NODE":"76.8299","SITE":"AFETR","MEAN_MOTION":"15.06401354","COUNTRY_CODE":"US","PERIOD":"95.592","MEAN_MOTION_DDOT":"0.0000000000000","BSTAR":"-0.00002328900000","DECAY_DATE":null,"FILE":"3105271","ARG_OF_PERICENTER":"64.3233","APOAPSIS":"548.844","RCS_SIZE":"LARGE","INCLINATION":"53.0542","REF_FRAME":"TEME","NORAD_CAT_ID":"45757","TIME_SYSTEM":"UTC","PERIAPSIS":"545.574","MEAN_ELEMENT_THEORY":"SGP4","REV_AT_EPOCH":"6733","SEMIMAJOR_AXIS":"6925.344","LAUNCH_DATE":"2020-06-13","ECCENTRICITY":"0.00023610","OBJECT_TYPE":"PAYLOAD","CENTER_NAME":"EARTH","CLASSIFICATION_TYPE":"U","EPHEMERIS_TYPE":"0","MEAN_ANOMALY":"295.7999","MEAN_MOTION_DOT":"-0.00000629","TLE_LINE1":"1 45757U 20038AD  21241.77956339 -.00000629  00000-0 -23289-4 0  9997","EPOCH":"2021-08-29T18:42:34.276896","TLE_LINE2":"2 45757  53.0542  76.8299 0002361  64.3233 295.7999 15.06401354 67331","GP_ID":"183697896","OBJECT_NAME":"STARLINK-1486"},{"OBJECT_NAME":"STARLINK-1487","GP_ID":"183699148","TLE_LINE2":"2 45758  53.0563  76.5614 0002166  81.8977 278.2258 15.06399937 67343","EPOCH":"2021-08-29T20:07:29.610624","TLE_LINE1":"1 45758U 20038AE  21241.83853716  .00001785  00000-0  13869-3 0  9994","EPHEMERIS_TYPE":"0","MEAN_ANOMALY":"278.2258","MEAN_MOTION_DOT":"0.00001785","OBJECT_TYPE":"PAYLOAD","CENTER_NAME":"EARTH","CLASSIFICATION_TYPE":"U","ECCENTRICITY":"0.00021660","MEAN_ELEMENT_THEORY":"SGP4","REV_AT_EPOCH":"6734","SEMIMAJOR_AXIS":"6925.349","LAUNCH_DATE":"2020-06-13","REF_FRAME":"TEME","NORAD_CAT_ID":"45758","TIME_SYSTEM":"UTC","PERIAPSIS":"545.714","APOAPSIS":"548.714","RCS_SIZE":"LARGE","INCLINATION":"53.0563","ARG_OF_PERICENTER":"81.8977","BSTAR":"0.00013869000000","DECAY_DATE":null,"FILE":"3105271","MEAN_MOTION_DDOT":"0.0000000000000","COUNTRY_CODE":"US","MEAN_MOTION":"15.06399937","PERIOD":"95.592","SITE":"AFETR","ELEMENT_SET_NO":"999","RA_OF_ASC_NODE":"76.5614","OBJECT_ID":"2020-038AE"},{"SITE":"AFETR","PERIOD":"95.592","MEAN_MOTION":"15.06394952","COUNTRY_CODE":"US","RA_OF_ASC_NODE":"76.3553","OBJECT_ID":"2020-038AF","ELEMENT_SET_NO":"999","ARG_OF_PERICENTER":"93.5657","INCLINATION":"53.0557","APOAPSIS":"548.597","RCS_SIZE":"LARGE","MEAN_MOTION_DDOT":"0.0000000000000","FILE":"3105271","BSTAR":"0.00001270600000","DECAY_DATE":null,"ECCENTRICITY":"0.00019760","CENTER_NAME":"EARTH","CLASSIFICATION_TYPE":"U","OBJECT_TYPE":"PAYLOAD","NORAD_CAT_ID":"45759","TIME_SYSTEM":"UTC","PERIAPSIS":"545.861","REF_FRAME":"TEME","SEMIMAJOR_AXIS":"6925.364","LAUNCH_DATE":"2020-06-13","MEAN_ELEMENT_THEORY":"SGP4","REV_AT_EPOCH":"6735","TLE_LINE2":"2 45759  53.0557  76.3553 0001976  93.5657 266.5558 15.06394952 67356","EPOCH":"2021-08-29T21:16:30.188928","GP_ID":"183698898","OBJECT_NAME":"STARLINK-1493","MEAN_MOTION_DOT":"-0.00000092","MEAN_ANOMALY":"266.5558","EPHEMERIS_TYPE":"0","TLE_LINE1":"1 45759U 20038AF  21241.88646052 -.00000092  00000-0  12706-4 0  9994"},{"ARG_OF_PERICENTER":"87.3224","INCLINATION":"53.0570","APOAPSIS":"548.725","RCS_SIZE":"LARGE","MEAN_MOTION_DDOT":"0.0000000000000","FILE":"3105271","BSTAR":"0.00011140000000","DECAY_DATE":null,"SITE":"AFETR","PERIOD":"95.592","COUNTRY_CODE":"US","MEAN_MOTION":"15.06405151","OBJECT_ID":"2020-038AG","RA_OF_ASC_NODE":"76.6329","ELEMENT_SET_NO":"999","TLE_LINE2":"2 45760  53.0570  76.6329 0002205  87.3224 272.8018 15.06405151 67359","GP_ID":"183697646","EPOCH":"2021-08-29T19:46:15.833568","OBJECT_NAME":"STARLINK-1494","MEAN_ANOMALY":"272.8018","MEAN_MOTION_DOT":"0.00001378","EPHEMERIS_TYPE":"0","TLE_LINE1":"1 45760U 20038AG  21241.82379437  .00001378  00000-0  11140-3 0  9997","ECCENTRICITY":"0.00022050","CENTER_NAME":"EARTH","CLASSIFICATION_TYPE":"U","OBJECT_TYPE":"PAYLOAD","NORAD_CAT_ID":"45760","TIME_SYSTEM":"UTC","PERIAPSIS":"545.671","REF_FRAME":"TEME","SEMIMAJOR_AXIS":"6925.333","LAUNCH_DATE":"2020-06-13","REV_AT_EPOCH":"6735","MEAN_ELEMENT_THEORY":"SGP4"},{"ELEMENT_SET_NO":"999","RA_OF_ASC_NODE":"72.8065","OBJECT_ID":"2020-038AH","SITE":"AFETR","MEAN_MOTION":"15.42172170","COUNTRY_CODE":"US","PERIOD":"93.375","MEAN_MOTION_DDOT":"0.0000000000000","DECAY_DATE":null,"BSTAR":"-0.00016689000000","FILE":"3105271","ARG_OF_PERICENTER":"73.8339","RCS_SIZE":"LARGE","APOAPSIS":"440.719","INCLINATION":"53.0570","REF_FRAME":"TEME","PERIAPSIS":"438.685","NORAD_CAT_ID":"45761","TIME_SYSTEM":"UTC","MEAN_ELEMENT_THEORY":"SGP4","REV_AT_EPOCH":"6741","LAUNCH_DATE":"2020-06-13","SEMIMAJOR_AXIS":"6817.837","ECCENTRICITY":"0.00014920","OBJECT_TYPE":"PAYLOAD","CLASSIFICATION_TYPE":"U","CENTER_NAME":"EARTH","EPHEMERIS_TYPE":"0","MEAN_MOTION_DOT":"-0.00007670","MEAN_ANOMALY":"286.2829","TLE_LINE1":"1 45761U 20038AH  21241.82066675 -.00007670  00000-0 -16689-3 0  9991","TLE_LINE2":"2 45761  53.0570  72.8065 0001492  73.8339 286.2829 15.42172170 67417","GP_ID":"183698397","EPOCH":"2021-08-29T19:41:45.607200","OBJECT_NAME":"STARLINK-1495"},{"ECCENTRICITY":"0.00021400","OBJECT_TYPE":"PAYLOAD","CENTER_NAME":"EARTH","CLASSIFICATION_TYPE":"U","REF_FRAME":"TEME","NORAD_CAT_ID":"45762","TIME_SYSTEM":"UTC","PERIAPSIS":"545.723","REV_AT_EPOCH":"6736","MEAN_ELEMENT_THEORY":"SGP4","SEMIMAJOR_AXIS":"6925.341","LAUNCH_DATE":"2020-06-13","TLE_LINE2":"2 45762  53.0544  76.4675 0002140  88.8246 271.2988 15.06402625 67365","GP_ID":"183698648","EPOCH":"2021-08-29T20:39:20.385504","OBJECT_NAME":"STARLINK-1499","EPHEMERIS_TYPE":"0","MEAN_MOTION_DOT":"0.00002131","MEAN_ANOMALY":"271.2988","TLE_LINE1":"1 45762U 20038AJ  21241.86065261  .00002131  00000-0  16191-3 0  9999","SITE":"AFETR","COUNTRY_CODE":"US","MEAN_MOTION":"15.06402625","PERIOD":"95.592","ELEMENT_SET_NO":"999","OBJECT_ID":"2020-038AJ","RA_OF_ASC_NODE":"76.4675","ARG_OF_PERICENTER":"88.8246","RCS_SIZE":"LARGE","APOAPSIS":"548.688","INCLINATION":"53.0544","MEAN_MOTION_DDOT":"0.0000000000000","BSTAR":"0.00016191000000","DECAY_DATE":null,"FILE":"3105271"},{"SITE":"AFETR","MEAN_MOTION":"15.66152173","COUNTRY_CODE":"US","PERIOD":"91.945","ELEMENT_SET_NO":"999","RA_OF_ASC_NODE":"49.2145","OBJECT_ID":"2020-038AK","ARG_OF_PERICENTER":"28.8236","RCS_SIZE":"LARGE","APOAPSIS":"371.356","INCLINATION":"53.0577","MEAN_MOTION_DDOT":"0.0000000000000","DECAY_DATE":null,"BSTAR":"-0.00009746400000","FILE":"3105271","ECCENTRICITY":"0.00021140","OBJECT_TYPE":"PAYLOAD","CLASSIFICATION_TYPE":"U","CENTER_NAME":"EARTH","REF_FRAME":"TEME","PERIAPSIS":"368.503","TIME_SYSTEM":"UTC","NORAD_CAT_ID":"45763","REV_AT_EPOCH":"6792","MEAN_ELEMENT_THEORY":"SGP4","LAUNCH_DATE":"2020-06-13","SEMIMAJOR_AXIS":"6748.064","TLE_LINE2":"2 45763  53.0577  49.2145 0002114  28.8236 331.2895 15.66152173 67928","EPOCH":"2021-08-29T17:53:04.878240","GP_ID":"183699399","OBJECT_NAME":"STARLINK-1501","EPHEMERIS_TYPE":"0","MEAN_ANOMALY":"331.2895","MEAN_MOTION_DOT":"-0.00010760","TLE_LINE1":"1 45763U 20038AK  21241.74519535 -.00010760  00000-0 -97464-4 0  9997"},{"SITE":"AFETR","PERIOD":"95.592","MEAN_MOTION":"15.06400390","COUNTRY_CODE":"US","OBJECT_ID":"2020-038AL","RA_OF_ASC_NODE":"76.4933","ELEMENT_SET_NO":"999","ARG_OF_PERICENTER":"93.8883","INCLINATION":"53.0538","RCS_SIZE":"LARGE","APOAPSIS":"548.624","MEAN_MOTION_DDOT":"0.0000000000000","FILE":"3105271","BSTAR":"0.00004408100000","DECAY_DATE":null,"ECCENTRICITY":"0.00020380","CENTER_NAME":"EARTH","CLASSIFICATION_TYPE":"U","OBJECT_TYPE":"PAYLOAD","NORAD_CAT_ID":"45764","TIME_SYSTEM":"UTC","PERIAPSIS":"545.801","REF_FRAME":"TEME","SEMIMAJOR_AXIS":"6925.347","LAUNCH_DATE":"2020-06-13","MEAN_ELEMENT_THEORY":"SGP4","REV_AT_EPOCH":"6736","EPOCH":"2021-08-29T20:28:43.940640","TLE_LINE2":"2 45764  53.0538  76.4933 0002038  93.8883 266.2339 15.06400390 67367","GP_ID":"183698147","OBJECT_NAME":"STARLINK-1502","MEAN_ANOMALY":"266.2339","MEAN_MOTION_DOT":"0.00000375","EPHEMERIS_TYPE":"0","TLE_LINE1":"1 45764U 20038AL  21241.85328635  .00000375  00000-0  44081-4 0  9995"},{"OBJECT_TYPE":"PAYLOAD","CLASSIFICATION_TYPE":"U","CENTER_NAME":"EARTH","ECCENTRICITY":"0.00014050","MEAN_ELEMENT_THEORY":"SGP4","REV_AT_EPOCH":"6746","LAUNCH_DATE":"2020-06-13","SEMIMAJOR_AXIS":"6808.412","REF_FRAME":"TEME","PERIAPSIS":"429.320","NORAD_CAT_ID":"45765","TIME_SYSTEM":"UTC","OBJECT_NAME":"STARLINK-1508","EPOCH":"2021-08-29T21:07:03.794592","TLE_LINE2":"2 45765  53.0544  69.5840 0001405  82.9782 277.1384 15.45375505 67463","GP_ID":"183697897","TLE_LINE1":"1 45765U 20038AM  21241.87990503  .00331300  00000-0  65481-2 0  9997","EPHEMERIS_TYPE":"0","MEAN_MOTION_DOT":"0.00331300","MEAN_ANOMALY":"277.1384","COUNTRY_CODE":"US","MEAN_MOTION":"15.45375505","PERIOD":"93.181","SITE":"AFETR","ELEMENT_SET_NO":"999","RA_OF_ASC_NODE":"69.5840","OBJECT_ID":"2020-038AM","APOAPSIS":"431.234","RCS_SIZE":"LARGE","INCLINATION":"53.0544","ARG_OF_PERICENTER":"82.9782","DECAY_DATE":null,"BSTAR":"0.00654810000000","FILE":"3105271","MEAN_MOTION_DDOT":"0.0000000000000"}];
